#dP2019  3 22  0  0  0.00000000     289 d+D   IGS14 FIT AIUB
## 2045 432000.00000000   300.00000000 58564 0.0000000000000
+   92   G01G02G03G04G05G06G07G08G09G10G11G12G13G14G15G16G17
+        G18G19G20G21G22G23G24G25G26G27G28G29G30G31G32R01R02
+        R03R04R05R07R08R09R10R11R13R14R15R16R17R18R19R20R21
+        R22R23R24R26E01E02E03E04E05E07E08E09E11E12E13E14E15
+        E18E19E21E24E25E26E27E30E31E33E36C06C07C08C09C10C11
+        C12C13C14C16J01J02J03  0  0  0  0  0  0  0  0  0  0
++         5  5  5  5  5  5  5  5  5  5  5  5  5  5  5  5  5
++         5  5  5  5  5  5  5  5  5  5  5  5  5  5  5  5  5
++         5  5  5  5  5  5  5  5  5  5  5  5  5  5  5  5  5
++         5  5  5  5  5  5  5  5  5  5  5  5  5  5  5 10  5
++         5  5  5  5  5  5  5  5  5  5  5  5  5  5  5  5  5
++         5  5  5  5  8  5  5  0  0  0  0  0  0  0  0  0  0
%c M  cc GPS ccc cccc cccc cccc cccc ccccc ccccc ccccc ccccc
%c cc cc ccc ccc cccc cccc cccc cccc ccccc ccccc ccccc ccccc
%f  1.2500000  1.025000000  0.00000000000  0.000000000000000
%f  0.0000000  0.000000000  0.00000000000  0.000000000000000
%i    0    0    0    0      0      0      0      0         0
%i    0    0    0    0      0      0      0      0         0
/* CODE MGEX orbits and clocks                                                  
/* of DOY 19081                                                                 
/*                                                                              
/* PCV:IGS14      OL/AL:FES2004  NONE     YN ORB:CoN CLK:CoN                    
*  2019  3 22  2 55  0.00000000
PG01  22648.002109  14206.084278     45.612194   -185.590679
PG02  -6737.920491 -18527.473225  18483.165886   -169.558483
PG03  12731.019169  13593.526686  18929.646390    187.004733
PG04  24447.496966 -10041.396445   2670.941547    136.925079
PG05  -2720.818010 -26009.669216  -4077.660880      1.183360
PG06   6066.927285 -13764.608086  21934.043396    249.567444
PG07  23105.662109   4298.176001 -12562.000615     10.311656
PG08  10415.789079  11206.709485 -21688.467146   -137.052161
PG09  24311.475966  -6685.932885   8324.175774    441.497563
PG10 -11384.631769  18111.383644 -15556.781192     91.751596
PG11  22330.035499  10473.687986 -10068.656551   -640.823908
PG12 -10761.267704 -15659.768914  18425.966582    258.082382
PG13  -1201.218358 -15494.302388 -21649.432006    -70.812527
PG14 -14014.392283  17307.999969  14644.940338    -87.453197
PG15 -13608.425083  -9774.522174 -20928.439209   -322.361477
PG16   1117.506666  25598.051800  -6219.820462    -27.067705
PG17  20805.751850 -14991.215303   7138.447116     27.058458
PG18  17603.098126  17709.658870  -9735.630656     37.034301
PG19  15450.201820 -16394.100107  13849.930168   -339.593913
PG20 -14552.927920   8830.183510 -20465.274961    523.315882
PG21 -21351.980295    569.440223 -14899.733256   -227.830859
PG22  10994.188863  20154.331640  13643.474416   -668.929655
PG23  20409.664535   2934.672355  17280.758122   -193.152457
PG24 -21547.220837 -15344.014399  -4056.567946    -63.694724
PG25 -14778.062456  -2560.317935  21727.031320   -736.140903
PG26  -3957.516954  25632.891273   5243.482105    155.547922
PG27  -1055.426639  16477.214972 -20828.659613    -91.247359
PG28  12594.115050 -16852.562778 -15660.091933    766.632441
PG29 -23158.067877   1137.182287  12923.780618    243.809720
PG30  16765.336991  -5963.068489 -19753.813665    -72.657863
PG31  -5602.013259  14391.887248  21568.748913     50.491691
PG32 -18266.171429  17060.121635   8868.732942   -169.554870
PR01  13793.849917  -4035.459590  21072.919221     41.185514
PR02  14600.493750 -20161.052641   5731.792500    359.937148
PR03   6016.168678 -21893.927734 -11628.359905     -7.395235
PR04  -6377.298247 -10390.103519 -22391.036266    299.470886
PR05 -14371.315155   6281.798619 -20098.334876     24.543407
PR07  -5621.271722  21692.729489  12187.111318    -16.883877
PR08   5934.841012  11036.406720  22269.753717     18.565219
PR09  -4558.068083  12962.777242  21514.202744     60.349713
PR10   6417.453026  21905.745799  11438.483419     45.713056
PR11  15096.070499  19476.818529  -6662.410367    -60.457463
PR13   5263.689452 -11537.438058 -22155.052607    -21.524856
PR14  -6493.934196 -21888.319954 -11361.564387     37.145503
PR15 -14826.689237 -19917.814742   5874.044373    100.790765
PR16 -14914.875408  -6249.453821  19741.743913     10.638726
PR17   1030.857827 -10642.947108  23171.517908    214.030099
PR18 -16570.533393  -7967.782868  17666.845067     37.566569
PR19 -25331.707700  -1584.286795   2520.006773    -21.224171
PR20 -18892.438809   6697.371853 -15729.619886   -372.505623
PR21   -412.822271  10561.011191 -23209.776803    -37.917973
PR22  18805.446660   7127.788268 -15765.874389    -10.623944
PR23  25347.423854  -1197.419917   2641.172730    216.829834
PR24  17546.552572  -7605.717058  16872.849491   -178.467841
PR26 -20505.123599   6263.071416 -13818.931350      2.573900
PE01   1720.286948 -25546.643614 -14859.995238   -567.195867
PE02  -1683.458800  25560.371099  14815.102674     52.528267
PE03 -12949.613063  24869.134429   9509.445890   -146.547188
PE04  -4533.126098 -18849.188815 -22362.930010   -245.296400
PE05 -22969.018289  16348.315297  -9016.331449     87.548625
PE07  19513.197758   1704.710988  22198.381650   -153.733076
PE08   4668.147149  18674.033829  22494.656870   6384.991900
PE09 -19443.464356  -1413.355623 -22270.946044   6493.034470
PE11 -28462.555400  -7482.865820   3055.100837   5714.043330
PE12 -14963.252816 -16227.768499  19720.360909   6425.746460
PE13  28478.063930   7424.128062  -3212.796187    384.540026
PE14  24687.956832   5595.787405 -18682.080186 999999.999999
PE15  15434.160586  16003.125999 -19531.725378    916.406182
PE18 -24203.830950   4873.165800   6324.774645   -599.732563
PE19  14404.929133 -24667.789268  -7762.216442     -7.579546
PE21  14083.707329  -8786.965386 -24514.662208   -525.244963
PE24 -18018.016623 -12683.583503  19759.727293   6172.998610
PE25 -14103.903038   8728.659000  24515.538693   1858.268610
PE26  24979.622650  -5396.171969  14948.304617   4771.256900
PE27  18029.221603  13008.982432 -19541.100640    505.721959
PE30  11463.033726  27059.014726  -3501.757525   5013.763100
PE31 -11395.126922 -27141.114689   3114.903804    877.043521
PE33   6708.189641 -15245.784525  24483.017629    847.947895
PE36 -24884.921159   5520.746275 -15026.852954    733.643783
PC06 -23857.634895  30995.851151  15567.063438    565.725209
PC07  -9493.298350  36387.063340  19626.195750     84.419551
PC08 -13353.765792  17943.120747 -35669.229109    133.137285
PC09 -11232.079126  30416.335233  26976.315004    624.436113
PC10    -74.480921  41399.031647   9132.946046   -595.064112
PC11  -2070.393556  15729.198025 -22905.492803    -62.729070
PC12 -26203.553636   8356.342901  -4888.705562    511.590284
PC13   2028.501485  25084.223336 -33731.158624   -607.095679
PC14 -10205.667379  25860.521035  -2032.836066    742.378257
PC16 -20786.056634  31549.983696  18557.606127   -409.361161
PJ01 -20981.674253  33988.868352  -8843.380631   -341.248889
PJ02 -24580.847877  21931.240311  31051.444801      0.492107
PJ03 -35140.180192  21687.591174  -3878.085873     -0.314332
EOF
